{
  "type": "FeatureCollection",
  "features": [
    {
      "type": "Feature",
      "properties": {
        "norad_id": 33682,
        "name": "FENGYUN 1C DEB",
        "group": "fengyun-1c-debris",
        "lat": 74.21347095477543,
        "lon": 2.9079024656860226,
        "alt_km": 775.5596105439554,
        "timestamp": "2025-12-17T21:39:45.972733+00:00",
        "meta_object_name": "FENGYUN 1C DEB",
        "meta_object_id": "1999-025DFT",
        "meta_epoch": "2025-12-17T09:31:18.131232",
        "meta_mean_motion": 14.26710697,
        "meta_eccentricity": 0.00282831,
        "meta_inclination": 99.4216,
        "meta_ra_of_asc_node": 38.3301,
        "meta_arg_of_pericenter": 69.3704,
        "meta_mean_anomaly": 291.0503,
        "meta_ephemeris_type": 0,
        "meta_classification_type": "U",
        "meta_norad_cat_id": 33682,
        "meta_element_set_no": 999,
        "meta_rev_at_epoch": 91764,
        "meta_bstar": 0.0011185678,
        "meta_mean_motion_dot": 2.668e-05,
        "meta_mean_motion_ddot": 0,
        "tle_line1": "1 33682U 99025DFT 25351.39673763  .00002668  00000+0  11186-2 0  9997",
        "tle_line2": "2 33682  99.4216  38.3301 0028283  69.3704 291.0503 14.26710697917645"
      },
      "geometry": {
        "type": "Point",
        "coordinates": [
          2.9079024656860226,
          74.21347095477543
        ]
      }
    },
    {
      "type": "Feature",
      "properties": {
        "norad_id": 33684,
        "name": "FENGYUN 1C DEB",
        "group": "fengyun-1c-debris",
        "lat": -21.516337613829602,
        "lon": -135.51459495606576,
        "alt_km": 761.208859125788,
        "timestamp": "2025-12-17T21:39:45.972742+00:00",
        "meta_object_name": "FENGYUN 1C DEB",
        "meta_object_id": "1999-025DFV",
        "meta_epoch": "2025-12-16T02:20:54.296160",
        "meta_mean_motion": 14.73183419,
        "meta_eccentricity": 0.028705,
        "meta_inclination": 99.0658,
        "meta_ra_of_asc_node": 46.0777,
        "meta_arg_of_pericenter": 330.0778,
        "meta_mean_anomaly": 28.4279,
        "meta_ephemeris_type": 0,
        "meta_classification_type": "U",
        "meta_norad_cat_id": 33684,
        "meta_element_set_no": 999,
        "meta_rev_at_epoch": 93038,
        "meta_bstar": 0.00063530626,
        "meta_mean_motion_dot": 7.879e-05,
        "meta_mean_motion_ddot": 0,
        "tle_line1": "1 33684U 99025DFV 25350.09785065  .00007879  00000+0  63531-3 0  9995",
        "tle_line2": "2 33684  99.0658  46.0777 0287050 330.0778  28.4279 14.73183419930380"
      },
      "geometry": {
        "type": "Point",
        "coordinates": [
          -135.51459495606576,
          -21.516337613829602
        ]
      }
    },
    {
      "type": "Feature",
      "properties": {
        "norad_id": 33687,
        "name": "FENGYUN 1C DEB",
        "group": "fengyun-1c-debris",
        "lat": 55.80672962400265,
        "lon": -167.90508988701467,
        "alt_km": 579.0541103417772,
        "timestamp": "2025-12-17T21:39:45.972751+00:00",
        "meta_object_name": "FENGYUN 1C DEB",
        "meta_object_id": "1999-025DFY",
        "meta_epoch": "2025-12-16T18:14:40.406496",
        "meta_mean_motion": 15.18952421,
        "meta_eccentricity": 0.01143186,
        "meta_inclination": 98.9961,
        "meta_ra_of_asc_node": 357.2522,
        "meta_arg_of_pericenter": 322.8022,
        "meta_mean_anomaly": 36.5326,
        "meta_ephemeris_type": 0,
        "meta_classification_type": "U",
        "meta_norad_cat_id": 33687,
        "meta_element_set_no": 999,
        "meta_rev_at_epoch": 71569,
        "meta_bstar": 0.0012331719,
        "meta_mean_motion_dot": 0.00030657,
        "meta_mean_motion_ddot": 0,
        "tle_line1": "1 33687U 99025DFY 25350.76018989  .00030657  00000+0  12332-2 0  9998",
        "tle_line2": "2 33687  98.9961 357.2522 0114318 322.8022  36.5326 15.18952421715695"
      },
      "geometry": {
        "type": "Point",
        "coordinates": [
          -167.90508988701467,
          55.80672962400265
        ]
      }
    },
    {
      "type": "Feature",
      "properties": {
        "norad_id": 33688,
        "name": "FENGYUN 1C DEB",
        "group": "fengyun-1c-debris",
        "lat": -8.356598011134638,
        "lon": 95.19571733239239,
        "alt_km": 752.726707313016,
        "timestamp": "2025-12-17T21:39:45.972760+00:00",
        "meta_object_name": "FENGYUN 1C DEB",
        "meta_object_id": "1999-025DFZ",
        "meta_epoch": "2025-12-16T05:50:11.318784",
        "meta_mean_motion": 14.45667107,
        "meta_eccentricity": 0.00540402,
        "meta_inclination": 99.3499,
        "meta_ra_of_asc_node": 91.9821,
        "meta_arg_of_pericenter": 252.6682,
        "meta_mean_anomaly": 106.8591,
        "meta_ephemeris_type": 0,
        "meta_classification_type": "U",
        "meta_norad_cat_id": 33688,
        "meta_element_set_no": 999,
        "meta_rev_at_epoch": 91532,
        "meta_bstar": 0.0020438807,
        "meta_mean_motion_dot": 7.315e-05,
        "meta_mean_motion_ddot": 0,
        "tle_line1": "1 33688U 99025DFZ 25350.24318656  .00007315  00000+0  20439-2 0  9998",
        "tle_line2": "2 33688  99.3499  91.9821 0054040 252.6682 106.8591 14.45667107915328"
      },
      "geometry": {
        "type": "Point",
        "coordinates": [
          95.19571733239239,
          -8.356598011134638
        ]
      }
    },
    {
      "type": "Feature",
      "properties": {
        "norad_id": 33689,
        "name": "FENGYUN 1C DEB",
        "group": "fengyun-1c-debris",
        "lat": 17.205199406073426,
        "lon": -3.1253776848204113,
        "alt_km": 758.12977524696,
        "timestamp": "2025-12-17T21:39:45.972769+00:00",
        "meta_object_name": "FENGYUN 1C DEB",
        "meta_object_id": "1999-025DGA",
        "meta_epoch": "2025-12-07T05:58:19.079616",
        "meta_mean_motion": 14.45083851,
        "meta_eccentricity": 0.00480135,
        "meta_inclination": 99.5648,
        "meta_ra_of_asc_node": 347.8823,
        "meta_arg_of_pericenter": 167.5369,
        "meta_mean_anomaly": 254.9476,
        "meta_ephemeris_type": 0,
        "meta_classification_type": "U",
        "meta_norad_cat_id": 33689,
        "meta_element_set_no": 999,
        "meta_rev_at_epoch": 69451,
        "meta_bstar": 0.0017194976,
        "meta_mean_motion_dot": 6.046e-05,
        "meta_mean_motion_ddot": 0,
        "tle_line1": "1 33689U 99025DGA 25341.24883194  .00006046  00000+0  17195-2 0  9998",
        "tle_line2": "2 33689  99.5648 347.8823 0048013 167.5369 254.9476 14.45083851694511"
      },
      "geometry": {
        "type": "Point",
        "coordinates": [
          -3.1253776848204113,
          17.205199406073426
        ]
      }
    },
    {
      "type": "Feature",
      "properties": {
        "norad_id": 33690,
        "name": "FENGYUN 1C DEB",
        "group": "fengyun-1c-debris",
        "lat": 46.05058842479918,
        "lon": -80.55819158611797,
        "alt_km": 720.1596421425074,
        "timestamp": "2025-12-17T21:39:45.972778+00:00",
        "meta_object_name": "FENGYUN 1C DEB",
        "meta_object_id": "1999-025DGB",
        "meta_epoch": "2025-12-16T05:20:53.420928",
        "meta_mean_motion": 14.51511082,
        "meta_eccentricity": 0.00301791,
        "meta_inclination": 98.6135,
        "meta_ra_of_asc_node": 88.6744,
        "meta_arg_of_pericenter": 38.6259,
        "meta_mean_anomaly": 321.7086,
        "meta_ephemeris_type": 0,
        "meta_classification_type": "U",
        "meta_norad_cat_id": 33690,
        "meta_element_set_no": 999,
        "meta_rev_at_epoch": 93270,
        "meta_bstar": 0.0014564054,
        "meta_mean_motion_dot": 5.813e-05,
        "meta_mean_motion_ddot": 0,
        "tle_line1": "1 33690U 99025DGB 25350.22284052  .00005813  00000+0  14564-2 0  9994",
        "tle_line2": "2 33690  98.6135  88.6744 0030179  38.6259 321.7086 14.51511082932701"
      },
      "geometry": {
        "type": "Point",
        "coordinates": [
          -80.55819158611797,
          46.05058842479918
        ]
      }
    },
    {
      "type": "Feature",
      "properties": {
        "norad_id": 33693,
        "name": "FENGYUN 1C DEB",
        "group": "fengyun-1c-debris",
        "lat": -52.69611505463742,
        "lon": -178.27748694379645,
        "alt_km": 870.5158585943809,
        "timestamp": "2025-12-17T21:39:45.972787+00:00",
        "meta_object_name": "FENGYUN 1C DEB",
        "meta_object_id": "1999-025DGE",
        "meta_epoch": "2025-12-16T10:53:33.885024",
        "meta_mean_motion": 13.71323317,
        "meta_eccentricity": 0.02261218,
        "meta_inclination": 99.214,
        "meta_ra_of_asc_node": 168.0309,
        "meta_arg_of_pericenter": 349.0928,
        "meta_mean_anomaly": 10.5362,
        "meta_ephemeris_type": 0,
        "meta_classification_type": "U",
        "meta_norad_cat_id": 33693,
        "meta_element_set_no": 999,
        "meta_rev_at_epoch": 88282,
        "meta_bstar": 0.0012847057,
        "meta_mean_motion_dot": 1.34e-05,
        "meta_mean_motion_ddot": 0,
        "tle_line1": "1 33693U 99025DGE 25350.45386441  .00001340  00000+0  12847-2 0  9990",
        "tle_line2": "2 33693  99.2140 168.0309 0226121 349.0928  10.5362 13.71323317882823"
      },
      "geometry": {
        "type": "Point",
        "coordinates": [
          -178.27748694379645,
          -52.69611505463742
        ]
      }
    }
  ]
}